[
  {
    "OBJECT_NAME": "STARLINK-3943",
    "OBJECT_ID": "22051AA",
    "EPOCH": "2025-11-11T05:08:06.157824",
    "MEAN_MOTION": 15.0883624,
    "ECCENTRICITY": 0.0001438,
    "INCLINATION": 53.2185,
    "RA_OF_ASC_NODE": 300.9798,
    "ARG_OF_PERICENTER": 97.3915,
    "MEAN_ANOMALY": 262.7241,
    "EPHEMERIS_TYPE": 0,
    "CLASSIFICATION_TYPE": "U",
    "NORAD_CAT_ID": 52557,
    "ELEMENT_SET_NO": 999,
    "REV_AT_EPOCH": 19356,
    "BSTAR": 0.00015014,
    "MEAN_MOTION_DOT": 2.102e-05,
    "MEAN_MOTION_DDOT": 0.0,
    "TLE_LINE1": "1 52557U 22051AA  25315.21396016  .00002102  00000+0  15014-3 0  9996",
    "TLE_LINE2": "2 52557  53.2185 300.9798 0001438  97.3915 262.7241 15.08836240193561",
    "COMMENT": "Grouped by shell and plane from TLE"
  },
  {
    "OBJECT_NAME": "STARLINK-3955",
    "OBJECT_ID": "22051AE",
    "EPOCH": "2025-11-11T06:13:37.776000",
    "MEAN_MOTION": 15.08874836,
    "ECCENTRICITY": 0.0001297,
    "INCLINATION": 53.2181,
    "RA_OF_ASC_NODE": 305.773,
    "ARG_OF_PERICENTER": 81.6197,
    "MEAN_ANOMALY": 278.4942,
    "EPHEMERIS_TYPE": 0,
    "CLASSIFICATION_TYPE": "U",
    "NORAD_CAT_ID": 52561,
    "ELEMENT_SET_NO": 999,
    "REV_AT_EPOCH": 19349,
    "BSTAR": 0.00035293000000000005,
    "MEAN_MOTION_DOT": 5.339e-05,
    "MEAN_MOTION_DDOT": 0.0,
    "TLE_LINE1": "1 52561U 22051AE  25315.25946500  .00005339  00000+0  35293-3 0  9990",
    "TLE_LINE2": "2 52561  53.2181 305.7730 0001297  81.6197 278.4942 15.08874836193499",
    "COMMENT": "Grouped by shell and plane from TLE"
  },
  {
    "OBJECT_NAME": "STARLINK-3942",
    "OBJECT_ID": "22051AG",
    "EPOCH": "2025-11-11T06:18:58.162752",
    "MEAN_MOTION": 15.08845674,
    "ECCENTRICITY": 0.0001267,
    "INCLINATION": 53.2185,
    "RA_OF_ASC_NODE": 305.7574,
    "ARG_OF_PERICENTER": 106.214,
    "MEAN_ANOMALY": 253.8991,
    "EPHEMERIS_TYPE": 0,
    "CLASSIFICATION_TYPE": "U",
    "NORAD_CAT_ID": 52563,
    "ELEMENT_SET_NO": 999,
    "REV_AT_EPOCH": 19349,
    "BSTAR": 0.0,
    "MEAN_MOTION_DOT": -1.837e-05,
    "MEAN_MOTION_DDOT": 0.0,
    "TLE_LINE1": "1 52563U 22051AG  25315.26317318 -.00001837  00000+0 -97368-4 0  9995",
    "TLE_LINE2": "2 52563  53.2185 305.7574 0001267 106.2140 253.8991 15.08845674193499",
    "COMMENT": "Grouped by shell and plane from TLE"
  },
  {
    "OBJECT_NAME": "STARLINK-3959",
    "OBJECT_ID": "22051AH",
    "EPOCH": "2025-11-11T06:09:45.434304",
    "MEAN_MOTION": 15.08847123,
    "ECCENTRICITY": 0.0001423,
    "INCLINATION": 53.2174,
    "RA_OF_ASC_NODE": 305.7952,
    "ARG_OF_PERICENTER": 87.2419,
    "MEAN_ANOMALY": 272.8736,
    "EPHEMERIS_TYPE": 0,
    "CLASSIFICATION_TYPE": "U",
    "NORAD_CAT_ID": 52564,
    "ELEMENT_SET_NO": 999,
    "REV_AT_EPOCH": 19349,
    "BSTAR": 0.00024002000000000002,
    "MEAN_MOTION_DOT": 3.535e-05,
    "MEAN_MOTION_DDOT": 0.0,
    "TLE_LINE1": "1 52564U 22051AH  25315.25677586  .00003535  00000+0  24002-3 0  9990",
    "TLE_LINE2": "2 52564  53.2174 305.7952 0001423  87.2419 272.8736 15.08847123193498",
    "COMMENT": "Grouped by shell and plane from TLE"
  },
  {
    "OBJECT_NAME": "STARLINK-3938",
    "OBJECT_ID": "22051AK",
    "EPOCH": "2025-11-11T07:11:58.157088",
    "MEAN_MOTION": 15.08844864,
    "ECCENTRICITY": 0.0001383,
    "INCLINATION": 53.2173,
    "RA_OF_ASC_NODE": 305.5915,
    "ARG_OF_PERICENTER": 88.8902,
    "MEAN_ANOMALY": 271.2249,
    "EPHEMERIS_TYPE": 0,
    "CLASSIFICATION_TYPE": "U",
    "NORAD_CAT_ID": 52566,
    "ELEMENT_SET_NO": 999,
    "REV_AT_EPOCH": 19350,
    "BSTAR": 0.00011433,
    "MEAN_MOTION_DOT": 1.532e-05,
    "MEAN_MOTION_DDOT": 0.0,
    "TLE_LINE1": "1 52566U 22051AK  25315.29997867  .00001532  00000+0  11433-3 0  9992",
    "TLE_LINE2": "2 52566  53.2173 305.5915 0001383  88.8902 271.2249 15.08844864193508",
    "COMMENT": "Grouped by shell and plane from TLE"
  },
  {
    "OBJECT_NAME": "STARLINK-3836",
    "OBJECT_ID": "22051AT",
    "EPOCH": "2025-11-11T07:01:22.081152",
    "MEAN_MOTION": 15.08841828,
    "ECCENTRICITY": 0.0001318,
    "INCLINATION": 53.2174,
    "RA_OF_ASC_NODE": 305.6265,
    "ARG_OF_PERICENTER": 86.8926,
    "MEAN_ANOMALY": 273.2217,
    "EPHEMERIS_TYPE": 0,
    "CLASSIFICATION_TYPE": "U",
    "NORAD_CAT_ID": 52577,
    "ELEMENT_SET_NO": 999,
    "REV_AT_EPOCH": 19350,
    "BSTAR": 0.00015221,
    "MEAN_MOTION_DOT": 2.135e-05,
    "MEAN_MOTION_DDOT": 0.0,
    "TLE_LINE1": "1 52577U 22051AT  25315.29261668  .00002135  00000+0  15221-3 0  9996",
    "TLE_LINE2": "2 52577  53.2174 305.6265 0001318  86.8926 273.2217 15.08841828193506",
    "COMMENT": "Grouped by shell and plane from TLE"
  },
  {
    "OBJECT_NAME": "STARLINK-3833",
    "OBJECT_ID": "22051AU",
    "EPOCH": "2025-11-11T07:06:40.222368",
    "MEAN_MOTION": 15.08844248,
    "ECCENTRICITY": 0.0001573,
    "INCLINATION": 53.2185,
    "RA_OF_ASC_NODE": 305.6092,
    "ARG_OF_PERICENTER": 91.6928,
    "MEAN_ANOMALY": 268.4244,
    "EPHEMERIS_TYPE": 0,
    "CLASSIFICATION_TYPE": "U",
    "NORAD_CAT_ID": 52578,
    "ELEMENT_SET_NO": 999,
    "REV_AT_EPOCH": 19350,
    "BSTAR": 7.1312e-05,
    "MEAN_MOTION_DOT": 8.47e-06,
    "MEAN_MOTION_DDOT": 0.0,
    "TLE_LINE1": "1 52578U 22051AU  25315.29629887  .00000847  00000+0  71312-4 0  9990",
    "TLE_LINE2": "2 52578  53.2185 305.6092 0001573  91.6928 268.4244 15.08844248193501",
    "COMMENT": "Grouped by shell and plane from TLE"
  },
  {
    "OBJECT_NAME": "STARLINK-3893",
    "OBJECT_ID": "22051AV",
    "EPOCH": "2025-11-11T06:50:45.987936",
    "MEAN_MOTION": 15.08844744,
    "ECCENTRICITY": 0.0001368,
    "INCLINATION": 53.2177,
    "RA_OF_ASC_NODE": 305.6578,
    "ARG_OF_PERICENTER": 96.6592,
    "MEAN_ANOMALY": 263.4556,
    "EPHEMERIS_TYPE": 0,
    "CLASSIFICATION_TYPE": "U",
    "NORAD_CAT_ID": 52579,
    "ELEMENT_SET_NO": 999,
    "REV_AT_EPOCH": 19350,
    "BSTAR": 0.00010448,
    "MEAN_MOTION_DOT": 1.376e-05,
    "MEAN_MOTION_DDOT": 0.0,
    "TLE_LINE1": "1 52579U 22051AV  25315.28525449  .00001376  00000+0  10448-3 0  9999",
    "TLE_LINE2": "2 52579  53.2177 305.6578 0001368  96.6592 263.4556 15.08844744193508",
    "COMMENT": "Grouped by shell and plane from TLE"
  },
  {
    "OBJECT_NAME": "STARLINK-3919",
    "OBJECT_ID": "22051AW",
    "EPOCH": "2025-11-11T06:57:27.294336",
    "MEAN_MOTION": 15.08837211,
    "ECCENTRICITY": 0.0001512,
    "INCLINATION": 53.2191,
    "RA_OF_ASC_NODE": 305.6501,
    "ARG_OF_PERICENTER": 98.5037,
    "MEAN_ANOMALY": 261.6126,
    "EPHEMERIS_TYPE": 0,
    "CLASSIFICATION_TYPE": "U",
    "NORAD_CAT_ID": 52580,
    "ELEMENT_SET_NO": 999,
    "REV_AT_EPOCH": 19350,
    "BSTAR": 4.8209000000000005e-05,
    "MEAN_MOTION_DOT": 4.79e-06,
    "MEAN_MOTION_DDOT": 0.0,
    "TLE_LINE1": "1 52580U 22051AW  25315.28989924  .00000479  00000+0  48209-4 0  9993",
    "TLE_LINE2": "2 52580  53.2191 305.6501 0001512  98.5037 261.6126 15.08837211193502",
    "COMMENT": "Grouped by shell and plane from TLE"
  },
  {
    "OBJECT_NAME": "STARLINK-4020",
    "OBJECT_ID": "22053AZ",
    "EPOCH": "2025-11-11T07:17:16.053792",
    "MEAN_MOTION": 15.08842456,
    "ECCENTRICITY": 0.0001444,
    "INCLINATION": 53.2173,
    "RA_OF_ASC_NODE": 305.5891,
    "ARG_OF_PERICENTER": 89.9058,
    "MEAN_ANOMALY": 270.21,
    "EPHEMERIS_TYPE": 0,
    "CLASSIFICATION_TYPE": "U",
    "NORAD_CAT_ID": 52703,
    "ELEMENT_SET_NO": 999,
    "REV_AT_EPOCH": 19216,
    "BSTAR": 6.0266e-05,
    "MEAN_MOTION_DOT": 6.71e-06,
    "MEAN_MOTION_DDOT": 0.0,
    "TLE_LINE1": "1 52703U 22053AZ  25315.30365803  .00000671  00000+0  60266-4 0  9990",
    "TLE_LINE2": "2 52703  53.2173 305.5891 0001444  89.9058 270.2100 15.08842456192167",
    "COMMENT": "Grouped by shell and plane from TLE"
  },
  {
    "OBJECT_NAME": "STARLINK-3999",
    "OBJECT_ID": "22053BA",
    "EPOCH": "2025-11-11T06:03:04.762080",
    "MEAN_MOTION": 15.0885263,
    "ECCENTRICITY": 0.0001639,
    "INCLINATION": 53.2181,
    "RA_OF_ASC_NODE": 305.8064,
    "ARG_OF_PERICENTER": 83.1214,
    "MEAN_ANOMALY": 276.9965,
    "EPHEMERIS_TYPE": 0,
    "CLASSIFICATION_TYPE": "U",
    "NORAD_CAT_ID": 52704,
    "ELEMENT_SET_NO": 999,
    "REV_AT_EPOCH": 19343,
    "BSTAR": 4.2852e-06,
    "MEAN_MOTION_DOT": -2.2e-06,
    "MEAN_MOTION_DDOT": 0.0,
    "TLE_LINE1": "1 52704U 22053BA  25315.25213845 -.00000220  00000+0  42852-5 0  9996",
    "TLE_LINE2": "2 52704  53.2181 305.8064 0001639  83.1214 276.9965 15.08852630193436",
    "COMMENT": "Grouped by shell and plane from TLE"
  },
  {
    "OBJECT_NAME": "STARLINK-3844",
    "OBJECT_ID": "22053BB",
    "EPOCH": "2025-11-11T05:47:10.962240",
    "MEAN_MOTION": 15.08845038,
    "ECCENTRICITY": 0.0001455,
    "INCLINATION": 53.2174,
    "RA_OF_ASC_NODE": 305.8558,
    "ARG_OF_PERICENTER": 92.5402,
    "MEAN_ANOMALY": 267.5757,
    "EPHEMERIS_TYPE": 0,
    "CLASSIFICATION_TYPE": "U",
    "NORAD_CAT_ID": 52705,
    "ELEMENT_SET_NO": 999,
    "REV_AT_EPOCH": 19343,
    "BSTAR": 6.9561e-05,
    "MEAN_MOTION_DOT": 8.19e-06,
    "MEAN_MOTION_DDOT": 0.0,
    "TLE_LINE1": "1 52705U 22053BB  25315.24109910  .00000819  00000+0  69561-4 0  9991",
    "TLE_LINE2": "2 52705  53.2174 305.8558 0001455  92.5402 267.5757 15.08845038193435",
    "COMMENT": "Grouped by shell and plane from TLE"
  },
  {
    "OBJECT_NAME": "STARLINK-3970",
    "OBJECT_ID": "22053BC",
    "EPOCH": "2025-11-11T05:52:28.648128",
    "MEAN_MOTION": 15.08842479,
    "ECCENTRICITY": 0.0001482,
    "INCLINATION": 53.2176,
    "RA_OF_ASC_NODE": 305.8379,
    "ARG_OF_PERICENTER": 93.4178,
    "MEAN_ANOMALY": 266.6984,
    "EPHEMERIS_TYPE": 0,
    "CLASSIFICATION_TYPE": "U",
    "NORAD_CAT_ID": 52706,
    "ELEMENT_SET_NO": 999,
    "REV_AT_EPOCH": 19343,
    "BSTAR": 3.3196e-05,
    "MEAN_MOTION_DOT": 2.4e-06,
    "MEAN_MOTION_DDOT": 0.0,
    "TLE_LINE1": "1 52706U 22053BC  25315.24477602  .00000240  00000+0  33196-4 0  9991",
    "TLE_LINE2": "2 52706  53.2176 305.8379 0001482  93.4178 266.6984 15.08842479193437",
    "COMMENT": "Grouped by shell and plane from TLE"
  }
]